{
  "norad_id": 51739,
  "name": "STARLINK-3516",
  "history": [
    {
      "epoch": "2026-03-28T15:49:27.760512Z",
      "apogee_km": 540.6932135894622,
      "perigee_km": 538.7894134775779,
      "latitude_deg": -1.969011935796319e-05,
      "longitude_deg": 170.52089661889053,
      "height_km": 540.5581161833927,
      "semi_major_axis_km": 6917.87831353352,
      "eccentricity": 0.0001376,
      "inclination_deg": 53.2172,
      "raan_deg": 233.9632,
      "arg_perigee_deg": 85.2472,
      "mean_anomaly_deg": 274.8677,
      "mean_motion_rev_day": 15.08840679
    },
    {
      "epoch": "2026-03-29T02:57:09.351360Z",
      "apogee_km": 540.7050678779678,
      "perigee_km": 538.7556128614506,
      "latitude_deg": 2.805805402542326e-06,
      "longitude_deg": 1.059098332152685,
      "height_km": 540.5414926158154,
      "semi_major_axis_km": 6917.8673403697085,
      "eccentricity": 0.0001409,
      "inclination_deg": 53.2176,
      "raan_deg": 231.8817,
      "arg_perigee_deg": 85.0257,
      "mean_anomaly_deg": 275.0896,
      "mean_motion_rev_day": 15.08844269
    },
    {
      "epoch": "2026-03-30T02:47:56.595264Z",
      "apogee_km": 540.6946980467492,
      "perigee_km": 538.78813075574,
      "latitude_deg": -2.124550756614494e-05,
      "longitude_deg": -2.0794077449362804,
      "height_km": 540.7330360683496,
      "semi_major_axis_km": 6917.878414401244,
      "eccentricity": 0.0001378,
      "inclination_deg": 53.2175,
      "raan_deg": 227.4194,
      "arg_perigee_deg": 95.7748,
      "mean_anomaly_deg": 264.3401,
      "mean_motion_rev_day": 15.08840646
    },
    {
      "epoch": "2026-03-30T02:47:56.596128Z",
      "apogee_km": 540.6946288679646,
      "perigee_km": 538.7881999345236,
      "latitude_deg": -2.0326676794239092e-05,
      "longitude_deg": -2.0794106716229295,
      "height_km": 540.733029107733,
      "semi_major_axis_km": 6917.878414401244,
      "eccentricity": 0.00013779,
      "inclination_deg": 53.2175,
      "raan_deg": 227.4194,
      "arg_perigee_deg": 95.7748,
      "mean_anomaly_deg": 264.3401,
      "mean_motion_rev_day": 15.08840646
    },
    {
      "epoch": "2026-03-30T15:31:02.022816Z",
      "apogee_km": 540.8109945279484,
      "perigee_km": 538.713349141065,
      "latitude_deg": -3.414803023456328e-05,
      "longitude_deg": 164.24655161472927,
      "height_km": 540.794095994193,
      "semi_major_axis_km": 6917.899171834506,
      "eccentricity": 0.00015161,
      "inclination_deg": 53.2176,
      "raan_deg": 225.0403,
      "arg_perigee_deg": 97.4723,
      "mean_anomaly_deg": 262.6441,
      "mean_motion_rev_day": 15.08833855
    },
    {
      "epoch": "2026-03-30T18:41:48.251616Z",
      "apogee_km": 540.7864426980414,
      "perigee_km": 538.7189621815705,
      "latitude_deg": -4.781863662999613e-06,
      "longitude_deg": 115.82877584838516,
      "height_km": 540.8521250108402,
      "semi_major_axis_km": 6917.889702439806,
      "eccentricity": 0.00014943,
      "inclination_deg": 53.2177,
      "raan_deg": 224.4457,
      "arg_perigee_deg": 101.3722,
      "mean_anomaly_deg": 258.7438,
      "mean_motion_rev_day": 15.08836953
    },
    {
      "epoch": "2026-03-31T18:32:35.489472Z",
      "apogee_km": 540.7559967953657,
      "perigee_km": 538.7567256139773,
      "latitude_deg": -1.4435310462348524e-05,
      "longitude_deg": 112.69430650465448,
      "height_km": 540.732976890491,
      "semi_major_axis_km": 6917.893361204671,
      "eccentricity": 0.0001445,
      "inclination_deg": 53.2166,
      "raan_deg": 219.9874,
      "arg_perigee_deg": 94.6539,
      "mean_anomaly_deg": 265.4618,
      "mean_motion_rev_day": 15.08835756
    },
    {
      "epoch": "2026-04-01T15:12:36.386208Z",
      "apogee_km": 540.6827084714887,
      "perigee_km": 538.8370135889663,
      "latitude_deg": 1.7838124991647177e-05,
      "longitude_deg": 157.97603513179996,
      "height_km": 540.7022991245134,
      "semi_major_axis_km": 6917.896861030227,
      "eccentricity": 0.0001334,
      "inclination_deg": 53.2151,
      "raan_deg": 216.1216,
      "arg_perigee_deg": 92.9158,
      "mean_anomaly_deg": 267.1987,
      "mean_motion_rev_day": 15.08834611
    },
    {
      "epoch": "2026-04-02T16:38:46.771296Z",
      "apogee_km": 540.8532783533801,
      "perigee_km": 538.6603060212574,
      "latitude_deg": -4.2723586037122154e-05,
      "longitude_deg": 130.63109147987427,
      "height_km": 540.7080691124082,
      "semi_major_axis_km": 6917.8937921873185,
      "eccentricity": 0.0001585,
      "inclination_deg": 53.217,
      "raan_deg": 211.3646,
      "arg_perigee_deg": 92.9234,
      "mean_anomaly_deg": 267.1939,
      "mean_motion_rev_day": 15.08835615
    },
    {
      "epoch": "2026-04-02T16:38:46.772160Z",
      "apogee_km": 540.8532091744428,
      "perigee_km": 538.6603752001947,
      "latitude_deg": -4.1801340370283155e-05,
      "longitude_deg": 130.63108855573782,
      "height_km": 540.7080655842019,
      "semi_major_axis_km": 6917.8937921873185,
      "eccentricity": 0.00015849,
      "inclination_deg": 53.217,
      "raan_deg": 211.3646,
      "arg_perigee_deg": 92.9234,
      "mean_anomaly_deg": 267.1939,
      "mean_motion_rev_day": 15.08835615
    },
    {
      "epoch": "2026-04-03T18:04:57.319680Z",
      "apogee_km": 540.9930219941589,
      "perigee_km": 538.5219500837466,
      "latitude_deg": 4.725674608146433e-05,
      "longitude_deg": 103.2835767187604,
      "height_km": 540.5786923128182,
      "semi_major_axis_km": 6917.894486038953,
      "eccentricity": 0.0001786,
      "inclination_deg": 53.2182,
      "raan_deg": 206.6056,
      "arg_perigee_deg": 86.5673,
      "mean_anomaly_deg": 273.5524,
      "mean_motion_rev_day": 15.08835388
    },
    {
      "epoch": "2026-04-03T18:04:57.320544Z",
      "apogee_km": 540.9933678888847,
      "perigee_km": 538.5216041890226,
      "latitude_deg": 4.266682461621462e-05,
      "longitude_deg": 103.28356969628233,
      "height_km": 540.5786715991468,
      "semi_major_axis_km": 6917.894486038953,
      "eccentricity": 0.00017865,
      "inclination_deg": 53.2182,
      "raan_deg": 206.6056,
      "arg_perigee_deg": 86.5673,
      "mean_anomaly_deg": 273.5524,
      "mean_motion_rev_day": 15.08835388
    },
    {
      "epoch": "2026-04-05T14:35:45.017952Z",
      "apogee_km": 540.6527152454355,
      "perigee_km": 538.8457633597291,
      "latitude_deg": -6.151684849036443e-05,
      "longitude_deg": 145.43005678693407,
      "height_km": 540.6630381438334,
      "semi_major_axis_km": 6917.886239302582,
      "eccentricity": 0.0001306,
      "inclination_deg": 53.2175,
      "raan_deg": 198.279,
      "arg_perigee_deg": 91.1415,
      "mean_anomaly_deg": 268.9726,
      "mean_motion_rev_day": 15.08838086
    },
    {
      "epoch": "2026-04-05T14:35:45.018816Z",
      "apogee_km": 540.6527844242983,
      "perigee_km": 538.8456941808663,
      "latitude_deg": 1.8140325037018004e-05,
      "longitude_deg": 145.43011240366644,
      "height_km": 540.6630274919363,
      "semi_major_axis_km": 6917.886239302582,
      "eccentricity": 0.00013061,
      "inclination_deg": 53.2175,
      "raan_deg": 198.279,
      "arg_perigee_deg": 91.1415,
      "mean_anomaly_deg": 268.9727,
      "mean_motion_rev_day": 15.08838086
    },
    {
      "epoch": "2026-04-06T00:08:03.627456Z",
      "apogee_km": 540.6546983295411,
      "perigee_km": 538.8192480069793,
      "latitude_deg": 2.011638155241075e-06,
      "longitude_deg": 0.17733132203286128,
      "height_km": 540.5901590692225,
      "semi_major_axis_km": 6917.87397316826,
      "eccentricity": 0.00013266,
      "inclination_deg": 53.2174,
      "raan_deg": 196.4955,
      "arg_perigee_deg": 87.3413,
      "mean_anomaly_deg": 272.7731,
      "mean_motion_rev_day": 15.08842099
    },
    {
      "epoch": "2026-04-07T12:41:55.914432Z",
      "apogee_km": 540.7420419593536,
      "perigee_km": 538.728664389685,
      "latitude_deg": -3.748067655475951e-05,
      "longitude_deg": 163.36648389150776,
      "height_km": 540.7637402419363,
      "semi_major_axis_km": 6917.872353174519,
      "eccentricity": 0.00014552,
      "inclination_deg": 53.2175,
      "raan_deg": 189.6542,
      "arg_perigee_deg": 97.5793,
      "mean_anomaly_deg": 262.5364,
      "mean_motion_rev_day": 15.08842629
    },
    {
      "epoch": "2026-04-08T12:32:43.166112Z",
      "apogee_km": 540.7774314074713,
      "perigee_km": 538.7246173151225,
      "latitude_deg": -2.365680196501168e-05,
      "longitude_deg": 160.23126991151324,
      "height_km": 540.7513335715614,
      "semi_major_axis_km": 6917.888024361297,
      "eccentricity": 0.00014837,
      "inclination_deg": 53.2177,
      "raan_deg": 185.1952,
      "arg_perigee_deg": 95.8565,
      "mean_anomaly_deg": 264.2596,
      "mean_motion_rev_day": 15.08837502
    },
    {
      "epoch": "2026-04-09T12:23:30.352992Z",
      "apogee_km": 540.6618381526914,
      "perigee_km": 538.8508720301952,
      "latitude_deg": 2.728150994695809e-05,
      "longitude_deg": 157.0958542847856,
      "height_km": 540.7245168896925,
      "semi_major_axis_km": 6917.893355091443,
      "eccentricity": 0.00013089,
      "inclination_deg": 53.2177,
      "raan_deg": 180.7357,
      "arg_perigee_deg": 94.5832,
      "mean_anomaly_deg": 265.531,
      "mean_motion_rev_day": 15.08835758
    },
    {
      "epoch": "2026-04-10T12:14:17.596032Z",
      "apogee_km": 540.5877171499842,
      "perigee_km": 538.9301892795947,
      "latitude_deg": -2.5766122849351775e-05,
      "longitude_deg": 153.95892705433516,
      "height_km": 540.6855383019304,
      "semi_major_axis_km": 6917.895953214789,
      "eccentricity": 0.0001198,
      "inclination_deg": 53.2171,
      "raan_deg": 176.275,
      "arg_perigee_deg": 92.1219,
      "mean_anomaly_deg": 267.991,
      "mean_motion_rev_day": 15.08834908
    },
    {
      "epoch": "2026-04-11T15:15:50.870016Z",
      "apogee_km": 540.6008852138148,
      "perigee_km": 538.899085015476,
      "latitude_deg": -5.7993348359562764e-06,
      "longitude_deg": 102.40548347969138,
      "height_km": 540.6435142221068,
      "semi_major_axis_km": 6917.886985114645,
      "eccentricity": 0.000123,
      "inclination_deg": 53.217,
      "raan_deg": 171.2201,
      "arg_perigee_deg": 89.8442,
      "mean_anomaly_deg": 270.2691,
      "mean_motion_rev_day": 15.08837842
    },
    {
      "epoch": "2026-04-13T03:49:42.951360Z",
      "apogee_km": 540.6191739237547,
      "perigee_km": 538.8746219623717,
      "latitude_deg": -3.7767680644322255e-05,
      "longitude_deg": -94.40279617528682,
      "height_km": 540.605555104988,
      "semi_major_axis_km": 6917.883897943063,
      "eccentricity": 0.00012609,
      "inclination_deg": 53.2166,
      "raan_deg": 164.3805,
      "arg_perigee_deg": 87.5618,
      "mean_anomaly_deg": 272.5518,
      "mean_motion_rev_day": 15.08838852
    }
  ]
}